{
  "type": "FeatureCollection",
  "features": [
    {
      "type": "Feature",
      "properties": {
        "norad_id": 32376,
        "name": "COSMO-SKYMED 2",
        "group": "resource",
        "lat": -42.6506220351773,
        "lon": 167.23137270697404,
        "alt_km": 629.8958755335561,
        "timestamp": "2025-12-04T10:51:49.762597+00:00",
        "meta_object_name": "COSMO-SKYMED 2",
        "meta_object_id": "2007-059A",
        "meta_epoch": "2025-12-04T04:34:37.792416",
        "meta_mean_motion": 14.82150137,
        "meta_eccentricity": 0.0001549,
        "meta_inclination": 97.8806,
        "meta_ra_of_asc_node": 159.643,
        "meta_arg_of_pericenter": 87.9005,
        "meta_mean_anomaly": 272.2385,
        "meta_ephemeris_type": 0,
        "meta_classification_type": "U",
        "meta_norad_cat_id": 32376,
        "meta_element_set_no": 999,
        "meta_rev_at_epoch": 97311,
        "meta_bstar": 0.00017153,
        "meta_mean_motion_dot": 1.313e-05,
        "meta_mean_motion_ddot": 0,
        "tle_line1": "1 32376U 07059A   25338.19071519  .00001313  00000+0  17153-3 0  9993",
        "tle_line2": "2 32376  97.8806 159.6430 0001549  87.9005 272.2385 14.82150137973119"
      },
      "geometry": {
        "type": "Point",
        "coordinates": [
          167.23137270697404,
          -42.6506220351773
        ]
      }
    },
    {
      "type": "Feature",
      "properties": {
        "norad_id": 32382,
        "name": "RADARSAT-2",
        "group": "resource",
        "lat": 19.413317194343616,
        "lon": -19.88663770638335,
        "alt_km": 791.6239754629842,
        "timestamp": "2025-12-04T10:51:49.762608+00:00",
        "meta_object_name": "RADARSAT-2",
        "meta_object_id": "2007-061A",
        "meta_epoch": "2025-12-04T04:03:18.194976",
        "meta_mean_motion": 14.29984081,
        "meta_eccentricity": 0.0001077,
        "meta_inclination": 98.5799,
        "meta_ra_of_asc_node": 342.8837,
        "meta_arg_of_pericenter": 90.3925,
        "meta_mean_anomaly": 269.738,
        "meta_ephemeris_type": 0,
        "meta_classification_type": "U",
        "meta_norad_cat_id": 32382,
        "meta_element_set_no": 999,
        "meta_rev_at_epoch": 93808,
        "meta_bstar": 8.3475e-05,
        "meta_mean_motion_dot": 1.72e-06,
        "meta_mean_motion_ddot": 0,
        "tle_line1": "1 32382U 07061A   25338.16896059  .00000172  00000+0  83475-4 0  9997",
        "tle_line2": "2 32382  98.5799 342.8837 0001077  90.3925 269.7380 14.29984081938084"
      },
      "geometry": {
        "type": "Point",
        "coordinates": [
          -19.88663770638335,
          19.413317194343616
        ]
      }
    },
    {
      "type": "Feature",
      "properties": {
        "norad_id": 32783,
        "name": "CARTOSAT-2A",
        "group": "resource",
        "lat": -13.046106405681183,
        "lon": -153.28409296713832,
        "alt_km": 645.6352965834803,
        "timestamp": "2025-12-04T10:51:49.762618+00:00",
        "meta_object_name": "CARTOSAT-2A",
        "meta_object_id": "2008-021A",
        "meta_epoch": "2025-12-04T00:15:04.729824",
        "meta_mean_motion": 14.78911986,
        "meta_eccentricity": 0.00124518,
        "meta_inclination": 97.7943,
        "meta_ra_of_asc_node": 28.1063,
        "meta_arg_of_pericenter": 31.9563,
        "meta_mean_anomaly": 328.2401,
        "meta_ephemeris_type": 0,
        "meta_classification_type": "U",
        "meta_norad_cat_id": 32783,
        "meta_element_set_no": 999,
        "meta_rev_at_epoch": 94995,
        "meta_bstar": 0.00024509787,
        "meta_mean_motion_dot": 1.759e-05,
        "meta_mean_motion_ddot": 0,
        "tle_line1": "1 32783U 08021A   25338.01047141  .00001759  00000+0  24510-3 0  9999",
        "tle_line2": "2 32783  97.7943  28.1063 0012451  31.9563 328.2401 14.78911986949954"
      },
      "geometry": {
        "type": "Point",
        "coordinates": [
          -153.28409296713832,
          -13.046106405681183
        ]
      }
    },
    {
      "type": "Feature",
      "properties": {
        "norad_id": 33320,
        "name": "HUANJING 1A (HJ-1A)",
        "group": "resource",
        "lat": -72.53736304557985,
        "lon": -7.597408269438171,
        "alt_km": 636.1342948968359,
        "timestamp": "2025-12-04T10:51:49.762629+00:00",
        "meta_object_name": "HUANJING 1A (HJ-1A)",
        "meta_object_id": "2008-041A",
        "meta_epoch": "2025-12-03T23:51:56.367360",
        "meta_mean_motion": 14.83350196,
        "meta_eccentricity": 0.00206181,
        "meta_inclination": 97.6531,
        "meta_ra_of_asc_node": 326.6588,
        "meta_arg_of_pericenter": 61.5697,
        "meta_mean_anomaly": 298.7592,
        "meta_ephemeris_type": 0,
        "meta_classification_type": "U",
        "meta_norad_cat_id": 33320,
        "meta_element_set_no": 999,
        "meta_rev_at_epoch": 92946,
        "meta_bstar": 0.00037646111,
        "meta_mean_motion_dot": 3.046e-05,
        "meta_mean_motion_ddot": 0,
        "tle_line1": "1 33320U 08041A   25337.99440240  .00003046  00000+0  37646-3 0  9997",
        "tle_line2": "2 33320  97.6531 326.6588 0020618  61.5697 298.7592 14.83350196929465"
      },
      "geometry": {
        "type": "Point",
        "coordinates": [
          -7.597408269438171,
          -72.53736304557985
        ]
      }
    },
    {
      "type": "Feature",
      "properties": {
        "norad_id": 33321,
        "name": "HUANJING 1B (HJ-1B)",
        "group": "resource",
        "lat": 15.324874280154908,
        "lon": 152.92429316737773,
        "alt_km": 608.9719013210606,
        "timestamp": "2025-12-04T10:51:49.762639+00:00",
        "meta_object_name": "HUANJING 1B (HJ-1B)",
        "meta_object_id": "2008-041B",
        "meta_epoch": "2025-12-03T22:47:28.831200",
        "meta_mean_motion": 14.8278519,
        "meta_eccentricity": 0.0038159,
        "meta_inclination": 97.6396,
        "meta_ra_of_asc_node": 330.3357,
        "meta_arg_of_pericenter": 103.5461,
        "meta_mean_anomaly": 257.0009,
        "meta_ephemeris_type": 0,
        "meta_classification_type": "U",
        "meta_norad_cat_id": 33321,
        "meta_element_set_no": 999,
        "meta_rev_at_epoch": 92947,
        "meta_bstar": 0.00025431796,
        "meta_mean_motion_dot": 2.031e-05,
        "meta_mean_motion_ddot": 0,
        "tle_line1": "1 33321U 08041B   25337.94963925  .00002031  00000+0  25432-3 0  9996",
        "tle_line2": "2 33321  97.6396 330.3357 0038159 103.5461 257.0009 14.82785190929473"
      },
      "geometry": {
        "type": "Point",
        "coordinates": [
          152.92429316737773,
          15.324874280154908
        ]
      }
    },
    {
      "type": "Feature",
      "properties": {
        "norad_id": 33331,
        "name": "GEOEYE 1",
        "group": "resource",
        "lat": -33.555278990866846,
        "lon": 55.27471159796748,
        "alt_km": 681.8741800453017,
        "timestamp": "2025-12-04T10:51:49.762650+00:00",
        "meta_object_name": "GEOEYE 1",
        "meta_object_id": "2008-042A",
        "meta_epoch": "2025-12-03T23:32:32.462592",
        "meta_mean_motion": 14.64794112,
        "meta_eccentricity": 0.00029585,
        "meta_inclination": 98.1263,
        "meta_ra_of_asc_node": 49.3707,
        "meta_arg_of_pericenter": 314.9715,
        "meta_mean_anomaly": 45.1248,
        "meta_ephemeris_type": 0,
        "meta_classification_type": "U",
        "meta_norad_cat_id": 33331,
        "meta_element_set_no": 999,
        "meta_rev_at_epoch": 92157,
        "meta_bstar": 0.00024088805,
        "meta_mean_motion_dot": 1.237e-05,
        "meta_mean_motion_ddot": 0,
        "tle_line1": "1 33331U 08042A   25337.98093128  .00001237  00000+0  24089-3 0  9995",
        "tle_line2": "2 33331  98.1263  49.3707 0002958 314.9715  45.1248 14.64794112921575"
      },
      "geometry": {
        "type": "Point",
        "coordinates": [
          55.27471159796748,
          -33.555278990866846
        ]
      }
    },
    {
      "type": "Feature",
      "properties": {
        "norad_id": 33396,
        "name": "THEOS",
        "group": "resource",
        "lat": 72.41123809618684,
        "lon": 8.315780624704423,
        "alt_km": 817.3353132216353,
        "timestamp": "2025-12-04T10:51:49.762661+00:00",
        "meta_object_name": "THEOS",
        "meta_object_id": "2008-049A",
        "meta_epoch": "2025-12-04T05:26:27.356928",
        "meta_mean_motion": 14.20093693,
        "meta_eccentricity": 0.0001093,
        "meta_inclination": 98.588,
        "meta_ra_of_asc_node": 36.5671,
        "meta_arg_of_pericenter": 100.2918,
        "meta_mean_anomaly": 259.8382,
        "meta_ephemeris_type": 0,
        "meta_classification_type": "U",
        "meta_norad_cat_id": 33396,
        "meta_element_set_no": 999,
        "meta_rev_at_epoch": 89029,
        "meta_bstar": 9.7403e-05,
        "meta_mean_motion_dot": 1.65e-06,
        "meta_mean_motion_ddot": 0,
        "tle_line1": "1 33396U 08049A   25338.22670552  .00000165  00000+0  97403-4 0  9993",
        "tle_line2": "2 33396  98.5880  36.5671 0001093 100.2918 259.8382 14.20093693890298"
      },
      "geometry": {
        "type": "Point",
        "coordinates": [
          8.315780624704423,
          72.41123809618684
        ]
      }
    }
  ]
}